{"type": "FeatureCollection", "features": [ {"type": "Feature", "properties": {"norad_id": 66649, "name": "COSMOS 2599 (RODNIK-S 24)", "group": "last-30-days", "lat": 59.55361911387193, "lon": -61.18643372941525, "alt_km": 1499.9333142837295, "timestamp": "2025-12-13T16:48:31.466139+00:00", "meta": {"OBJECT_NAME": "COSMOS 2599 (RODNIK-S 24)", "OBJECT_ID": "2025-273C", "EPOCH": "2025-12-12T23:04:21.395136", "MEAN_MOTION": 12.41150909, "ECCENTRICITY": 0.00063247, "INCLINATION": 82.5045, "RA_OF_ASC_NODE": 286.3293, "ARG_OF_PERICENTER": 278.0637, "MEAN_ANOMALY": 81.9724, "EPHEMERIS_TYPE": 0, "CLASSIFICATION_TYPE": "U", "NORAD_CAT_ID": 66649, "ELEMENT_SET_NO": 999, "REV_AT_EPOCH": 216, "BSTAR": 0.00045039203, "MEAN_MOTION_DOT": 7.1e-07, "MEAN_MOTION_DDOT": 0}, "tle": {"line1": "1 66649U 25273C   25346.96135874  .00000071  00000+0  45039-3 0  9994", "line2": "2 66649  82.5045 286.3293 0006324 278.0637  81.9724 12.41150909  2160"}}, "geometry": {"type": "Point", "coordinates": [-61.18643372941525, 59.55361911387193]}}, {"type": "Feature", "properties": {"norad_id": 66650, "name": "BEE-1000", "group": "last-30-days", "lat": 46.62968012767034, "lon": -93.40624626645338, "alt_km": 595.4202939772331, "timestamp": "2025-12-13T16:48:31.466149+00:00", "meta": {"OBJECT_NAME": "BEE-1000", "OBJECT_ID": "2025-274A", "EPOCH": "2025-12-12T18:03:30.652704", "MEAN_MOTION": 14.91662883, "ECCENTRICITY": 0.0010367, "INCLINATION": 97.7386, "RA_OF_ASC_NODE": 273.9398, "ARG_OF_PERICENTER": 251.2975, "MEAN_ANOMALY": 108.7119, "EPHEMERIS_TYPE": 0, "CLASSIFICATION_TYPE": "U", "NORAD_CAT_ID": 66650, "ELEMENT_SET_NO": 999, "REV_AT_EPOCH": 240, "BSTAR": 0.00033194488, "MEAN_MOTION_DOT": 3.284e-05, "MEAN_MOTION_DDOT": 0}, "tle": {"line1": "1 66650U 25274A   25346.75243811  .00003284  00000+0  33194-3 0  9993", "line2": "2 66650  97.7386 273.9398 0010367 251.2975 108.7119 14.91662883  2405"}}, "geometry": {"type": "Point", "coordinates": [-93.40624626645338, 46.62968012767034]}}, {"type": "Feature", "properties": {"norad_id": 66651, "name": "2025-274B", "group": "last-30-days", "lat": 51.96667772925041, "lon": -95.13886258425516, "alt_km": 594.6089585107302, "timestamp": "2025-12-13T16:48:31.466159+00:00", "meta": {"OBJECT_NAME": "2025-274B", "OBJECT_ID": "2025-274B", "EPOCH": "2025-12-12T18:02:10.476960", "MEAN_MOTION": 14.9180038, "ECCENTRICITY": 0.00105642, "INCLINATION": 97.738, "RA_OF_ASC_NODE": 273.9403, "ARG_OF_PERICENTER": 250.2531, "MEAN_ANOMALY": 109.7549, "EPHEMERIS_TYPE": 0, "CLASSIFICATION_TYPE": "U", "NORAD_CAT_ID": 66651, "ELEMENT_SET_NO": 999, "REV_AT_EPOCH": 240, "BSTAR": 0.00066878706, "MEAN_MOTION_DOT": 6.699e-05, "MEAN_MOTION_DDOT": 0}, "tle": {"line1": "1 66651U 25274B   25346.75151015  .00006699  00000+0  66879-3 0  9997", "line2": "2 66651  97.7380 273.9403 0010564 250.2531 109.7549 14.91800380  2407"}}, "geometry": {"type": "Point", "coordinates": [-95.13886258425516, 51.96667772925041]}}, {"type": "Feature", "properties": {"norad_id": 66652, "name": "2025-274C", "group": "last-30-days", "lat": 59.775023045682964, "lon": -98.62206428517483, "alt_km": 593.2357169726856, "timestamp": "2025-12-13T16:48:31.466168+00:00", "meta": {"OBJECT_NAME": "2025-274C", "OBJECT_ID": "2025-274C", "EPOCH": "2025-12-12T18:00:06.329664", "MEAN_MOTION": 14.91898182, "ECCENTRICITY": 0.00103523, "INCLINATION": 97.7387, "RA_OF_ASC_NODE": 273.943, "ARG_OF_PERICENTER": 257.3235, "MEAN_ANOMALY": 102.6827, "EPHEMERIS_TYPE": 0, "CLASSIFICATION_TYPE": "U", "NORAD_CAT_ID": 66652, "ELEMENT_SET_NO": 999, "REV_AT_EPOCH": 240, "BSTAR": 0.00040855361, "MEAN_MOTION_DOT": 4.079e-05, "MEAN_MOTION_DDOT": 0}, "tle": {"line1": "1 66652U 25274C   25346.75007326  .00004079  00000+0  40855-3 0  9999", "line2": "2 66652  97.7387 273.9430 0010352 257.3235 102.6827 14.91898182  2407"}}, "geometry": {"type": "Point", "coordinates": [-98.62206428517483, 59.775023045682964]}}, {"type": "Feature", "properties": {"norad_id": 66653, "name": "2025-274D", "group": "last-30-days", "lat": 60.18184383806518, "lon": -98.84895778775206, "alt_km": 593.803364178254, "timestamp": "2025-12-13T16:48:31.466178+00:00", "meta": {"OBJECT_NAME": "2025-274D", "OBJECT_ID": "2025-274D", "EPOCH": "2025-12-12T17:59:59.882496", "MEAN_MOTION": 14.91907825, "ECCENTRICITY": 0.00111348, "INCLINATION": 97.7384, "RA_OF_ASC_NODE": 273.9429, "ARG_OF_PERICENTER": 253.2745, "MEAN_ANOMALY": 106.7252, "EPHEMERIS_TYPE": 0, "CLASSIFICATION_TYPE": "U", "NORAD_CAT_ID": 66653, "ELEMENT_SET_NO": 999, "REV_AT_EPOCH": 240, "BSTAR": 0.00048010841, "MEAN_MOTION_DOT": 4.806e-05, "MEAN_MOTION_DDOT": 0}, "tle": {"line1": "1 66653U 25274D   25346.74999864  .00004806  00000+0  48011-3 0  9996", "line2": "2 66653  97.7384 273.9429 0011134 253.2745 106.7252 14.91907825  2405"}}, "geometry": {"type": "Point", "coordinates": [-98.84895778775206, 60.18184383806518]}}, {"type": "Feature", "properties": {"norad_id": 66654, "name": "JACK E", "group": "last-30-days", "lat": 69.91084300250417, "lon": -106.9469499526438, "alt_km": 592.8195301951, "timestamp": "2025-12-13T16:48:31.466193+00:00", "meta": {"OBJECT_NAME": "JACK E", "OBJECT_ID": "2025-274E", "EPOCH": "2025-12-12T17:57:23.787072", "MEAN_MOTION": 14.92083468, "ECCENTRICITY": 0.00117279, "INCLINATION": 97.7387, "RA_OF_ASC_NODE": 273.9456, "ARG_OF_PERICENTER": 255.0239, "MEAN_ANOMALY": 104.9682, "EPHEMERIS_TYPE": 0, "CLASSIFICATION_TYPE": "U", "NORAD_CAT_ID": 66654, "ELEMENT_SET_NO": 999, "REV_AT_EPOCH": 240, "BSTAR": 0.00049140414, "MEAN_MOTION_DOT": 4.943e-05, "MEAN_MOTION_DDOT": 0}, "tle": {"line1": "1 66654U 25274E   25346.74819198  .00004943  00000+0  49140-3 0  9994", "line2": "2 66654  97.7387 273.9456 0011727 255.0239 104.9682 14.92083468  2401"}}, "geometry": {"type": "Point", "coordinates": [-106.9469499526438, 69.91084300250417]}}, {"type": "Feature", "properties": {"norad_id": 66655, "name": "2025-274F", "group": "last-30-days", "lat": 70.23555122384006, "lon": -107.33755087725194, "alt_km": 585.847687313083, "timestamp": "2025-12-13T16:48:31.466205+00:00", "meta": {"OBJECT_NAME": "2025-274F", "OBJECT_ID": "2025-274F", "EPOCH": "2025-12-12T19:33:04.273920", "MEAN_MOTION": 14.91089281, "ECCENTRICITY": 0.00054102, "INCLINATION": 97.7325, "RA_OF_ASC_NODE": 274.0134, "ARG_OF_PERICENTER": 14.8803, "MEAN_ANOMALY": 345.2574, "EPHEMERIS_TYPE": 0, "CLASSIFICATION_TYPE": "U", "NORAD_CAT_ID": 66655, "ELEMENT_SET_NO": 999, "REV_AT_EPOCH": 241, "BSTAR": 2.464325e-05, "MEAN_MOTION_DOT": 1.89e-06, "MEAN_MOTION_DDOT": 0}, "tle": {"line1": "1 66655U 25274F   25346.81463280  .00000189  00000+0  24643-4 0  9990", "line2": "2 66655  97.7325 274.0134 0005410  14.8803 345.2574 14.91089281  2418"}}, "geometry": {"type": "Point", "coordinates": [-107.33755087725194, 70.23555122384006]}}, {"type": "Feature", "properties": {"norad_id": 66656, "name": "2025-274G", "group": "last-30-days", "lat": 79.36342542876433, "lon": -131.50449060833589, "alt_km": 591.9528451468377, "timestamp": "2025-12-13T16:48:31.466218+00:00", "meta": {"OBJECT_NAME": "2025-274G", "OBJECT_ID": "2025-274G", "EPOCH": "2025-12-12T17:54:32.673600", "MEAN_MOTION": 14.92274873, "ECCENTRICITY": 0.00123434, "INCLINATION": 97.7384, "RA_OF_ASC_NODE": 273.9479, "ARG_OF_PERICENTER": 256.8812, "MEAN_ANOMALY": 103.103, "EPHEMERIS_TYPE": 0, "CLASSIFICATION_TYPE": "U", "NORAD_CAT_ID": 66656, "ELEMENT_SET_NO": 999, "REV_AT_EPOCH": 240, "BSTAR": 0.00052553354, "MEAN_MOTION_DOT": 5.317e-05, "MEAN_MOTION_DDOT": 0}, "tle": {"line1": "1 66656U 25274G   25346.74621150  .00005317  00000+0  52553-3 0  9993", "line2": "2 66656  97.7384 273.9479 0012343 256.8812 103.1030 14.92274873  2406"}}, "geometry": {"type": "Point", "coordinates": [-131.50449060833589, 79.36342542876433]}}, {"type": "Feature", "properties": {"norad_id": 66657, "name": "SPIRONE", "group": "last-30-days", "lat": 81.4302369913407, "lon": 159.35303891465682, "alt_km": 590.2617225137637, "timestamp": "2025-12-13T16:48:31.466229+00:00", "meta": {"OBJECT_NAME": "SPIRONE", "OBJECT_ID": "2025-274H", "EPOCH": "2025-12-12T17:51:46.503936", "MEAN_MOTION": 14.92453734, "ECCENTRICITY": 0.00106834, "INCLINATION": 97.7381, "RA_OF_ASC_NODE": 273.9498, "ARG_OF_PERICENTER": 276.0433, "MEAN_ANOMALY": 83.9569, "EPHEMERIS_TYPE": 0, "CLASSIFICATION_TYPE": "U", "NORAD_CAT_ID": 66657, "ELEMENT_SET_NO": 999, "REV_AT_EPOCH": 240, "BSTAR": 0.00051210186, "MEAN_MOTION_DOT": 5.201e-05, "MEAN_MOTION_DDOT": 0}, "tle": {"line1": "1 66657U 25274H   25346.74428824  .00005201  00000+0  51210-3 0  9998", "line2": "2 66657  97.7381 273.9498 0010683 276.0433  83.9569 14.92453734  2400"}}, "geometry": {"type": "Point", "coordinates": [159.35303891465682, 81.4302369913407]}}, {"type": "Feature", "properties": {"norad_id": 66658, "name": "2025-274J", "group": "last-30-days", "lat": 73.753979632233, "lon": 122.71020140323427, "alt_km": 590.4383275101445, "timestamp": "2025-12-13T16:48:31.466239+00:00", "meta": {"OBJECT_NAME": "2025-274J", "OBJECT_ID": "2025-274J", "EPOCH": "2025-12-12T21:02:08.734272", "MEAN_MOTION": 14.92625953, "ECCENTRICITY": 0.0011263, "INCLINATION": 97.7382, "RA_OF_ASC_NODE": 274.0843, "ARG_OF_PERICENTER": 278.3932, "MEAN_ANOMALY": 81.601, "EPHEMERIS_TYPE": 0, "CLASSIFICATION_TYPE": "U", "NORAD_CAT_ID": 66658, "ELEMENT_SET_NO": 999, "REV_AT_EPOCH": 242, "BSTAR": 0.00048883719, "MEAN_MOTION_DOT": 4.984e-05, "MEAN_MOTION_DDOT": 0}, "tle": {"line1": "1 66658U 25274J   25346.87648998  .00004984  00000+0  48884-3 0  9999", "line2": "2 66658  97.7382 274.0843 0011263 278.3932  81.6010 14.92625953  2424"}}, "geometry": {"type": "Point", "coordinates": [122.71020140323427, 73.753979632233]}}]}